[Satellite]
VERSION=1.1
NAME=RS-40
NICKNAME=RS-40
TLE1=1 38735U 12041C   22335.88922994  .00000012  00000-0  16328-4 0  9997
TLE2=2 38735  82.4755 161.1191 0017551   8.2526 351.8838 12.42589171469310
STATUS=0
